OBJECT_NAME,OBJECT_ID,EPOCH,MEAN_MOTION,ECCENTRICITY,INCLINATION,RA_OF_ASC_NODE,ARG_OF_PERICENTER,MEAN_ANOMALY,EPHEMERIS_TYPE,CLASSIFICATION_TYPE,NORAD_CAT_ID,ELEMENT_SET_NO,REV_AT_EPOCH,BSTAR,MEAN_MOTION_DOT,MEAN_MOTION_DDOT
STARLINK-3812,2022-045R,2026-07-19T14:00:01.999872,15.21428192,.00023962,53.1608,326.4174,65.2518,59.6851,0,U,52346,999,579,.39507564E-3,.8666E-4,0
STARLINK-3826,2022-045S,2026-07-19T07:34:02.915328,15.33551709,.0001153,53.1621,324.9111,81.1194,278.9939,0,U,52347,999,23569,.22956498E-4,.382E-5,0
STARLINK-3829,2022-045T,2026-07-19T14:00:01.999872,15.25887826,.00015109,53.1597,324.8005,55.4071,223.3473,0,U,52348,999,574,.63693866E-3,.1623E-3,0
STARLINK-3819,2022-045U,2026-07-19T14:00:01.999872,15.33843111,.00009855,53.1607,324.0680,91.4262,142.1317,0,U,52349,999,533,.94720155E-3,.31199E-3,0
STARLINK-3754,2022-045V,2026-07-19T08:28:26.850720,15.35400516,.00008496,53.1603,324.6751,75.0760,285.0337,0,U,52350,999,23570,.21826861E-4,.381E-5,0
STARLINK-3838,2022-045X,2026-07-19T15:15:04.162176,15.08834844,.00012045,53.1607,326.5070,89.1451,270.9678,0,U,52352,999,23570,.8852576E-5,-.147E-5,0
STARLINK-3807,2022-045Y,2026-07-19T14:44:52.024992,15.33552504,.00013151,53.1605,323.5023,88.5447,271.5706,0,U,52353,999,23574,.23010167E-4,.384E-5,0
STARLINK-3877,2022-045AA,2026-07-19T15:20:22.270560,15.08832125,.00013328,53.1601,326.4904,90.5843,269.5301,0,U,52355,999,23570,.8518142E-5,-.152E-5,0
STARLINK-3801,2022-045AB,2026-07-18T17:45:14.360256,15.34384943,.00011213,53.1607,327.4775,66.1020,294.0100,0,U,52356,999,23561,.10896804E-4,-.8E-7,0
STARLINK-3821,2022-045AC,2026-07-19T08:24:58.343328,15.35401335,.00013255,53.1616,324.8173,63.5846,296.5293,0,U,52357,999,23570,.21839541E-4,.381E-5,0
STARLINK-3837,2022-045AD,2026-07-19T14:43:16.779360,15.08832817,.00007186,53.1623,326.6081,93.6849,266.4225,0,U,52358,999,23570,.36325917E-4,.29E-5,0
STARLINK-3853,2022-045AE,2026-07-19T14:00:01.999872,15.22264436,.00007761,53.1588,326.3766,164.3565,141.9516,0,U,52359,999,579,.54266484E-3,.12338E-3,0
STARLINK-3728,2022-045AG,2026-07-19T14:00:01.999872,15.33002172,.00015119,53.1595,323.9741,93.1597,49.1336,0,U,52361,999,584,.67480754E-3,.21505E-3,0
STARLINK-3848,2022-045AH,2026-07-19T10:58:10.296768,15.31703775,.00010143,53.1602,312.9599,86.6114,273.5004,0,U,52362,999,23587,.17930978E-4,.192E-5,0
STARLINK-3830,2022-045AJ,2026-07-19T14:00:01.999872,15.35398658,.0001234,53.1587,324.2509,85.6782,293.0182,0,U,52363,999,579,-.54662327E-3,-.19398E-3,0
STARLINK-3820,2022-045AK,2026-07-19T14:07:29.602848,15.08834034,.00010834,53.1599,316.6310,91.9792,268.1324,0,U,52364,999,23583,-.7661933E-5,-.41E-5,0
STARLINK-3874,2022-045AL,2026-07-19T14:39:18.470880,15.08832794,.00010741,53.1618,316.6186,83.1004,277.0109,0,U,52365,999,23583,.10181781E-4,-.126E-5,0
STARLINK-3808,2022-045AM,2026-07-19T07:51:15.950016,15.08834388,.0001157,53.1599,317.8927,90.0058,270.1066,0,U,52366,999,23579,.22358175E-4,.68E-6,0
STARLINK-3817,2022-045AN,2026-07-19T14:23:24.241632,15.08835454,.00014259,53.1610,316.6687,84.5374,275.5780,0,U,52367,999,23583,.47937435E-4,.475E-5,0
STARLINK-3834,2022-045AP,2026-07-19T07:35:22.164864,15.08832575,.00010743,53.1610,317.9434,85.8011,274.3103,0,U,52368,999,23578,.12167526E-4,-.94E-6,0
STARLINK-3841,2022-045AQ,2026-07-19T14:18:06.458112,15.08833776,.00010611,53.1601,316.6837,95.0269,265.0843,0,U,52369,999,23583,-.5667692E-5,-.378E-5,0
STARLINK-3827,2022-045AR,2026-07-19T14:08:53.695968,15.08832036,.00010036,53.1607,316.7249,85.8467,274.2639,0,U,52370,999,23583,.16307542E-4,-.28E-6,0
STARLINK-3798,2022-045AS,2026-07-18T17:43:32.158560,15.29358543,.00012266,53.1618,318.5964,73.1375,286.9760,0,U,52371,999,23572,.20219076E-4,.228E-5,0
STARLINK-3796,2022-045AT,2026-07-19T14:18:43.286112,15.35410832,.00007606,53.1605,314.0829,75.4131,284.6957,0,U,52372,999,23586,.90735305E-4,.2787E-4,0
STARLINK-3550,2022-045AU,2026-07-19T11:53:36.668256,15.34385592,.00009417,53.1615,312.1772,85.1227,274.9883,0,U,52373,999,23589,.16720035E-4,.189E-5,0
STARLINK-3762,2022-045AV,2026-07-19T11:26:45.524256,15.35404935,.00010007,53.1612,314.1326,65.0403,295.0704,0,U,52374,999,23586,.24863797E-4,.487E-5,0
STARLINK-3785,2022-045AW,2026-07-19T14:00:01.999872,15.35407225,.00012766,53.1595,314.1167,73.5881,249.5256,0,U,52375,999,575,-.27118114E-3,-.983E-4,0
STARLINK-3805,2022-045AY,2026-07-19T07:40:42.396960,15.08834229,.00011195,53.1605,318.1470,88.1476,271.9644,0,U,52377,999,23578,.30533734E-4,.198E-5,0
STARLINK-3806,2022-045AZ,2026-07-19T11:44:25.871712,15.08831303,.00011176,53.1604,317.1651,88.3732,271.7388,0,U,52378,999,23582,.72479335E-4,.866E-5,0
STARLINK-3800,2022-045BA,2026-07-19T14:00:01.999872,15.24884619,.00013301,53.1610,315.7092,24.3514,281.1675,0,U,52379,999,569,.85426692E-3,.21244E-3,0
